HORYU-4                 
1 41340U 16012D   21174.93257631  .00000565  00000-0  35479-4 0  9991
2 41340  31.0046 125.4145 0013855 236.9792 122.9513 15.01905028293761
E-ST@R-II               
1 41459U 16025D   21172.59569990  .00001736  00000-0  87383-4 0  9992
2 41459  98.1429 309.0401 0161018  48.9973 312.5050 15.08145494283046
AAUSAT 4                
1 41460U 16025E   21174.86730126  .00002380  00000-0  11323-3 0  9993
2 41460  98.1430 315.3566 0146901  25.2346 335.6423 15.11260930283685
BEESAT-4                
1 41619U 16040W   21174.88759611  .00002067  00000-0  84156-4 0  9995
2 41619  97.2690 230.7979 0009236 315.3749  44.6745 15.25566021265999
CANX-7                  
1 41788U 16059F   21174.54510282  .00013908  00000-0  15612-2 0  9999
2 41788  98.2533 279.9097 0030181 175.2409 185.0062 14.86561252254771
RAVAN                   
1 41849U 16067B   21174.87188772  .00000583  00000-0  53199-4 0  9996
2 41849  97.9634 297.8317 0008879  91.0099 269.2140 14.99066285252253
CELTEE 1                
1 41850U 16067C   21174.89927902 -.00000064  00000-0 -17070-6 0  9992
2 41850  97.9570 294.3615 0010383  90.1915 270.0496 14.97475469252088
OPTICUBE 04             
1 41851U 16067D   21174.90382171 -.00000390  00000-0 -28462-4 0  9995
2 41851  97.9551 293.7508 0010237  92.5979 267.6414 14.97122310252059
AEROCUBE 8D             
1 41852U 16067E   21174.90948091 -.00000178  00000-0 -10066-4 0  9990
2 41852  97.9546 293.6319 0010796  93.2635 266.9822 14.97233362252033
AEROCUBE 8C             
1 41853U 16067F   21174.88278854  .00000930  00000-0  85621-4 0  9994
2 41853  97.9547 293.4704 0011778  95.3616 264.8949 14.97202977252028
PROMETHEUS 2-1          
1 41854U 16067G   21174.88745799  .00001092  00000-0  98379-4 0  9996
2 41854  97.9562 294.0883 0012140  93.5468 266.7142 14.97701287252057
PROMETHEUS 2-3          
1 41855U 16067H   21174.88478536  .00001239  00000-0  11081-3 0  9996
2 41855  97.9563 294.1387 0012346  94.2542 266.0091 14.97717123252050
INS-1B                  
1 41954U 17008G   21174.82743960  .00002060  00000-0  82163-4 0  9995
2 41954  97.3073 237.7941 0010457  73.6631 286.5757 15.26250671241989
BGUSAT                  
1 41999U 17008BD  21174.83189300  .00004020  00000-0  14053-3 0  9997
2 41999  97.3246 244.4183 0009127  77.3379 282.8882 15.30084383241680
DIDO-2                  
1 42000U 17008BE  21174.85241118  .00001108  00000-0  46611-4 0  9999
2 42000  97.3072 238.0578 0009994  90.0709 270.1674 15.25412447241363
PEASSS                  
1 42015U 17008BV  21174.71062093  .00001797  00000-0  70603-4 0  9995
2 42015  97.3114 240.3954 0007896  90.5558 269.6586 15.26943887241976
AL-FARABI 1             
1 42016U 17008BW  21174.87943435  .00002612  00000-0  97741-4 0  9990
2 42016  97.3163 242.3565 0007701  89.1306 271.0816 15.28176769242211
NAYIF-1 (EO-88)         
1 42017U 17008BX  21174.84690308  .00002601  00000-0  97157-4 0  9995
2 42017  97.3157 242.3320 0007762  88.5183 271.6946 15.28229928242235
UCLSAT                  
1 42765U 17036A   21174.69131714  .00001861  00000-0  77487-4 0  9991
2 42765  97.2489 224.0514 0011819 147.8288 212.3674 15.24896628223127
LITUANICASAT-2          
1 42768U 17036D   21174.89819604  .00003569  00000-0  13960-3 0  9999
2 42768  97.2562 225.0726 0015032 138.1604 222.0787 15.26369912222455
AALTO-1                 
1 42775U 17036L   21174.66232392  .00001138  00000-0  51599-4 0  9996
2 42775  97.2462 220.6678 0014480 146.9635 213.2509 15.22706482222149
URSA MAIOR              
1 42776U 17036M   21174.66371103  .00001294  00000-0  57827-4 0  9994
2 42776  97.2476 221.1386 0014275 146.3034 213.9113 15.22971959222169
COMPASS 2               
1 42777U 17036N   21174.87415119  .00002918  00000-0  11689-3 0  9993
2 42777  97.2546 225.2024 0012921 138.8707 221.3508 15.25748358222395
DIAMOND RED             
1 42783U 17036U   21174.88352279  .00001441  00000-0  62413-4 0  9990
2 42783  97.2492 223.0639 0012480 151.3908 208.8017 15.23909182222299
PEGASUS                 
1 42784U 17036V   21174.67297846  .00001739  00000-0  73507-4 0  9992
2 42784  97.2496 223.5545 0012315 150.1594 210.0349 15.24467679222306
DIAMOND GREEN           
1 42785U 17036W   21174.68479949  .00001114  00000-0  48902-4 0  9998
2 42785  97.2494 222.9212 0012336 152.4246 207.7649 15.23905882222332
DIAMOND BLUE            
1 42786U 17036X   21174.61811157  .00001480  00000-0  63989-4 0  9991
2 42786  97.2494 222.8497 0012195 152.9174 207.2703 15.23927806222320
NUDTSAT                 
1 42787U 17036Y   21174.93371116  .00002703  00000-0  10638-3 0  9994
2 42787  97.2536 226.2332 0011491 141.5052 218.7007 15.26422831222326
SUCHAI                  
1 42788U 17036Z   21174.93121754  .00002134  00000-0  87464-4 0  9996
2 42788  97.2507 224.8014 0011908 146.3059 213.8939 15.25266816222473
SKCUBE                  
1 42789U 17036AA  21174.83026000  .00001957  00000-0  81111-4 0  9999
2 42789  97.2501 224.4131 0011803 147.1657 213.0317 15.24999523222368
VZLUSAT-1               
1 42790U 17036AB  21174.92787660  .00002952  00000-0  11601-3 0  9999
2 42790  97.2532 226.2168 0011381 142.3920 217.8117 15.26398801222471
ROBUSTA-1B              
1 42792U 17036AD  21174.86373242  .00002059  00000-0  84589-4 0  9995
2 42792  97.2504 224.8273 0011382 146.7573 213.4383 15.25237184222401
CICERO 6                
1 42793U 17036AE  21174.79737271  .00001334  00000-0  57671-4 0  9991
2 42793  97.2474 223.5660 0010726 150.6371 209.5472 15.24113829222408
D-SAT                   
1 42794U 17036AF  21174.93281480  .00000530  00000-0  50883-4 0  9999
2 42794  97.4605 194.4814 0124862 203.6331 155.9123 14.91583224218029
CORVUS BC2              
1 42846U 17042X   21174.60132084  .00000304  00000-0  34864-4 0  9993
2 42846  97.4719  46.3081 0010985 114.0887 246.1483 14.92306947214759
CORVUS BC1              
1 42847U 17042Y   21174.63872367  .00000157  00000-0  20459-4 0  9993
2 42847  97.4723  46.5831 0010690 112.8450 247.3900 14.92408016214763
MIRATA                  
1 43015U 17073C   21174.67648377  .00000916  00000-0  75715-4 0  9999
2 43015  97.7036  78.7362 0248056 276.5943  80.7091 14.80770702194130
MAKERSAT 0              
1 43016U 17073D   21174.71407611  .00000620  00000-0  53495-4 0  9992
2 43016  97.7070  78.8042 0251891 278.6907  78.5850 14.80014251194104
AEROCUBE 7B (OCSD B)    
1 43042U 17071F   21174.92231216  .00007363  00000-0  14360-3 0  9996
2 43042  51.6376  37.9390 0002926 344.6188  15.4711 15.48608084199830
AEROCUBE 7C (OCSD C)    
1 43043U 17071G   21174.88279544  .00007857  00000-0  15380-3 0  9999
2 43043  51.6369  38.4273 0003184 348.5108  11.5807 15.48394492199794
CHEFSAT                 
1 43044U 17071H   21174.74410394  .00026433  00000-0  31838-3 0  9992
2 43044  51.6356   3.4257 0001515   3.0435 357.0567 15.60611654200258
ASGARDIA 1              
1 43049U 17071N   21174.88703104  .00007427  00000-0  14668-3 0  9990
2 43049  51.6390  37.8365 0001727  25.3281 334.7791 15.48224354199805
ISARA                   
1 43050U 17071P   21174.82167211  .00019352  00000-0  26454-3 0  9995
2 43050  51.6330  10.4664 0000884  68.0163 292.0923 15.57454783200162
PROPCUBE 2 (FAUNA)      
1 43052U 17071R   21174.91296683  .00007523  00000-0  14379-3 0  9993
2 43052  51.6372  34.2597 0001540  26.5027 333.6040 15.49154330199847
CORVUS BC3              
1 43118U 18004H   21174.78488378  .00001155  00000-0  50157-4 0  9992
2 43118  97.4031 247.2509 0010029 177.8209 182.3074 15.24275648191547
MICROMAS-2A             
1 43131U 18004W   21174.73847434  .00003233  00000-0  12304-3 0  9994
2 43131  97.4115 250.6212 0008764 169.6119 190.5303 15.27447570191720
SPACEBEE-4              
1 43139U 18004AE  21174.88219056  .00005127  00000-0  18070-3 0  9991
2 43139  97.4182 253.1455 0008194 166.2447 193.9018 15.29701869191875
SPACEBEE-3              
1 43140U 18004AF  21174.71765877  .00006548  00000-0  21783-3 0  9995
2 43140  97.4213 254.4911 0007865 162.0660 198.0860 15.31474533191934
SPACEBEE-2              
1 43141U 18004AG  21174.85383197  .00007401  00000-0  24119-3 0  9997
2 43141  97.4232 255.2082 0007799 160.1607 199.9939 15.32093919191988
SPACEBEE-1              
1 43142U 18004AH  21174.89325332  .00008230  00000-0  26174-3 0  9993
2 43142  97.4243 255.8323 0007738 159.0371 201.1190 15.32838873192019
CICERO 7                
1 43143U 18004AJ  21174.74883370  .00002970  00000-0  11380-3 0  9997
2 43143  97.4089 250.6766 0006872 176.0875 184.0419 15.27298793191745
GOMX-4B                 
1 43196U 18015E   21174.89886253  .00000539  00000-0  24536-4 0  9993
2 43196  97.4860 307.9209 0016940 234.6851 125.2803 15.24956165188493
GOMX-4A                 
1 43197U 18015F   21173.26916017  .00001205  00000-0  50404-4 0  9990
2 43197  97.4845 306.5529 0016993 241.8347 184.3356 15.25462395188278
TEMPEST-D               
1 43547U 98067NV  21172.16341817  .12719577  12534-4  48743-3 0  9994
2 43547  51.6127 217.4511 0003370 292.8028  67.2644 16.44063265167608
AEROCUBE 12A            
1 43556U 18046C   21174.86059301  .00002707  00000-0  98630-4 0  9995
2 43556  51.6400 118.5930 0007496 181.8970 178.1984 15.31811609164260
AEROCUBE 12B            
1 43557U 18046D   21174.82748360  .00001509  00000-0  61307-4 0  9992
2 43557  51.6415 120.5873 0007631 180.9444 179.1524 15.31209266164185
SURFSAT                 
1 43614U 18070B   21174.90354782  .00004723  00000-0  10993-3 0  9998
2 43614  93.0324 308.6737 0013141 349.8633  10.2355 15.42242261155669
CP7 (DAVE)              
1 43615U 18070C   21174.92204803  .00004404  00000-0  10351-3 0  9993
2 43615  93.0328 308.6365 0013349 349.6637  10.4342 15.41950464155650
ELFIN-B                 
1 43616U 18070D   21174.86766621  .00006657  00000-0  14166-3 0  9998
2 43616  93.0281 308.8113 0012882 347.0873  13.0052 15.44895218155764
